GLOBALSTAR M024         
1 25883U 99043A   25285.27526796 -.00000016  00000+0  17299-2 0  9994
2 25883  51.9987 116.4284 0000592 335.4125 195.1664 11.10170060127865
GLOBALSTAR M027         
1 25884U 99043B   25285.25706703 -.00000080  00000+0 -63934-3 0  9991
2 25884  52.0198 197.7704 0020916 178.8358 181.2487 11.04372516154176
GLOBALSTAR M054         
1 25885U 99043C   25285.33825137 -.00000067  00000+0  10307-3 0  9994
2 25885  52.0146 305.2313 0005306  18.1510 355.0103 11.39220738132408
GLOBALSTAR M053         
1 25886U 99043D   25285.27607876 -.00000048  00000+0  61320-3 0  9996
2 25886  51.9971 258.9695 0003317 288.7504 210.4738 11.27667571132650
GLOBALSTAR M058         
1 25907U 99049A   25285.16854336 -.00000081  00000+0  45345-4 0  9996
2 25907  51.9920 156.8026 0002545 121.0780 239.0305 11.93202896555507
GLOBALSTAR M050         
1 25908U 99049B   25285.28042949 -.00000049  00000+0  44091-3 0  9999
2 25908  51.9969 155.4322 0008170 266.6494 215.0940 12.07458362162334
GLOBALSTAR M033         
1 25909U 99049C   25285.23455327 -.00000180  00000+0 -85361-3 0  9995
2 25909  51.9941  19.3022 0014429 144.5818 215.5990 12.20295710550037
GLOBALSTAR M055         
1 25910U 99049D   25285.24798366 -.00000079  00000+0  13253-3 0  9998
2 25910  52.0046  24.3127 0006922  20.3516 339.7611 12.29433481182683
